[Satellite]
VERSION=1.1
NAME=STARLINK-5055
NICKNAME=STARLINK-5055
TLE1=1 54015U 22125BD  22297.25001157 -.00150167  00000+0 -10847-2 0  9993
TLE2=2 54015  53.2189   1.0648 0002733  21.7971   7.6096 15.73194210  3257
STATUS=0
